NORAD_CAT_ID,OBJECT_NAME,OBJECT_TYPE,EPOCH,MEAN_MOTION,ECCENTRICITY,INCLINATION,RA_OF_ASC_NODE,ARG_OF_PERICENTER,MEAN_ANOMALY,BSTAR,MEAN_MOTION_DOT,MEAN_MOTION_DDOT,TLE_LINE0,TLE_LINE1,TLE_LINE2,SEMIMAJOR_AXIS,PERIOD,APOGEE,PERIGEE,DECAYED
50159.0,STARLINK-3297,PAYLOAD,2024-05-19 20:55:09,15.08829217,0.0001342,53.2164,336.6847,84.4492,275.6653,-0.00021623,-3.727e-05,0.0,0 STARLINK-3297,1 50159U 21125D   24140.87163452 -.00003727  00000-0 -21623-3 0  9996,2 50159  53.2164 336.6847 0001342  84.4492 275.6653 15.08829217133454,6917.913,95.438,540.707,538.85,0.0
50159.0,STARLINK-3297,PAYLOAD,2024-05-19 22:30:32,15.08828775,0.0001315,53.2163,336.3872,85.415,274.6993,-0.0002259,-3.88e-05,0.0,0 STARLINK-3297,1 50159U 21125D   24140.93787486 -.00003880  00000-0 -22590-3 0  9996,2 50159  53.2163 336.3872 0001315  85.4150 274.6993 15.08828775137009,6917.915,95.438,540.689,538.87,0.0
50159.0,STARLINK-3297,PAYLOAD,2024-05-20 22:21:20,15.08832559,0.0001419,53.2167,331.9198,91.0716,269.0439,2.2619e-05,7.2e-07,0.0,0 STARLINK-3297,1 50159U 21125D   24141.93148691  .00000072  00000-0  22619-4 0  9997,2 50159  53.2167 331.9198 0001419  91.0716 269.0439 15.08832559133612,6917.903,95.438,540.75,538.786,0.0
50159.0,STARLINK-3297,PAYLOAD,2024-05-21 19:01:22,15.08829804,0.00015,53.2175,328.0555,110.318,249.7974,0.00031054,4.656e-05,0.0,0 STARLINK-3297,1 50159U 21125D   24142.79261777  .00004656  00000-0  31054-3 0  9997,2 50159  53.2175 328.0555 0001500 110.3180 249.7974 15.08829804133748,6917.912,95.438,540.814,538.739,0.0
50159.0,STARLINK-3297,PAYLOAD,2024-05-23 18:42:56,15.08833672,0.000131,53.2172,319.1404,97.8065,262.3076,-1.3502e-06,-3.09e-06,0.0,0 STARLINK-3297,1 50159U 21125D   24144.77981656 -.00000309  00000-0 -13502-5 0  9995,2 50159  53.2172 319.1404 0001310  97.8065 262.3076 15.08833672134045,6917.9,95.438,540.671,538.858,0.0
50159.0,STARLINK-3297,PAYLOAD,2024-05-24 16:58:20,15.08842714,0.0001305,53.2166,314.9782,91.5912,268.523,0.00034874,5.267e-05,0.0,0 STARLINK-3297,1 50159U 21125D   24145.70717838  .00005267  00000-0  34874-3 0  9997,2 50159  53.2166 314.9782 0001305  91.5912 268.5230 15.08842714137721,6917.872,95.437,540.64,538.834,0.0
50159.0,STARLINK-3297,PAYLOAD,2024-05-25 19:59:53,15.08846654,0.0001422,53.2172,309.9191,88.2042,271.9113,0.00026386,3.915e-05,0.0,0 STARLINK-3297,1 50159U 21125D   24146.83325577  .00003915  00000-0  26386-3 0  9994,2 50159  53.2172 309.9191 0001422  88.2042 271.9113 15.08846654134354,6917.86,95.437,540.709,538.741,0.0
50159.0,STARLINK-3297,PAYLOAD,2024-05-26 11:53:43,15.08862872,0.0001201,53.2163,306.9478,98.7911,261.3217,0.00028274,4.218e-05,0.0,0 STARLINK-3297,1 50159U 21125D   24147.49564287  .00004218  00000-0  28274-3 0  9995,2 50159  53.2163 306.9478 0001201  98.7911 261.3217 15.08862872134454,6917.81,95.436,540.506,538.845,0.0
50159.0,STARLINK-3297,PAYLOAD,2024-05-26 15:04:29,15.08850151,0.0001212,53.2161,306.3517,83.0997,277.0133,-1.9267e-05,-5.95e-06,0.0,0 STARLINK-3297,1 50159U 21125D   24147.62812455 -.00000595  00000-0 -19267-4 0  9992,2 50159  53.2161 306.3517 0001212  83.0997 277.0133 15.08850151138017,6917.849,95.437,540.553,538.876,0.0
50159.0,STARLINK-3297,PAYLOAD,2024-05-26 19:50:39,15.08852341,0.000129,53.2167,305.459,80.5759,279.5379,5.7051e-05,6.2e-06,0.0,0 STARLINK-3297,1 50159U 21125D   24147.82684295  .00000620  00000-0  57051-4 0  9993,2 50159  53.2167 305.4590 0001290  80.5759 279.5379 15.08852341134500,6917.843,95.437,540.6,538.815,0.0
50159.0,STARLINK-3297,PAYLOAD,2024-05-27 10:09:08,15.0883245,0.0001297,53.2162,302.784,86.7022,273.4119,-0.00020519,-3.551e-05,0.0,0 STARLINK-3297,1 50159U 21125D   24148.42301438 -.00003551  00000-0 -20519-3 0  9991,2 50159  53.2162 302.7840 0001297  86.7022 273.4119 15.08832450134594,6917.903,95.438,540.666,538.871,0.0
50159.0,STARLINK-3297,PAYLOAD,2024-05-27 14:55:17,15.08832202,0.0001827,53.2172,301.8873,118.8279,241.2896,-0.00018215,-3.185e-05,0.0,0 STARLINK-3297,1 50159U 21125D   24148.62173417 -.00003185  00000-0 -18215-3 0  9990,2 50159  53.2172 301.8873 0001827 118.8279 241.2896 15.08832202138168,6917.904,95.438,541.033,538.505,0.0
50159.0,STARLINK-3297,PAYLOAD,2024-05-27 16:30:41,15.0882802,9.52e-05,53.2163,301.5948,83.9986,276.1114,-0.00021496,-3.706e-05,0.0,0 STARLINK-3297,1 50159U 21125D   24148.68797720 -.00003706  00000-0 -21496-3 0  9999,2 50159  53.2163 301.5948 0000952  83.9986 276.1114 15.08828020138177,6917.917,95.438,540.441,539.123,0.0
50159.0,STARLINK-3297,PAYLOAD,2024-05-28 13:10:42,15.08835172,0.0001207,53.2166,297.7282,85.1694,274.9436,0.00024539,3.619e-05,0.0,0 STARLINK-3297,1 50159U 21125D   24149.54910196  .00003619  00000-0  24539-3 0  9991,2 50159  53.2166 297.7282 0001207  85.1694 274.9436 15.08835172134761,6917.895,95.438,540.595,538.925,0.0
50159.0,STARLINK-3297,PAYLOAD,2024-05-28 16:21:28,15.08838789,0.0001331,53.217,297.1338,77.7888,282.3253,0.0004281,6.532e-05,0.0,0 STARLINK-3297,1 50159U 21125D   24149.68158304  .00006532  00000-0  42810-3 0  9990,2 50159  53.2170 297.1338 0001331  77.7888 282.3253 15.08838789138325,6917.884,95.438,540.67,538.828,0.0
50159.0,STARLINK-3297,PAYLOAD,2024-05-29 13:01:30,15.08836954,0.0001417,53.2174,293.2684,81.6457,278.4696,0.00025208,3.726e-05,0.0,0 STARLINK-3297,1 50159U 21125D   24150.54270842  .00003726  00000-0  25208-3 0  9993,2 50159  53.2174 293.2684 0001417  81.6457 278.4696 15.08836954134911,6917.89,95.438,540.735,538.774,0.0
50159.0,STARLINK-3297,PAYLOAD,2024-05-29 14:36:53,15.08836543,0.0001393,53.2176,292.9709,85.9833,274.1318,0.00022571,3.306e-05,0.0,0 STARLINK-3297,1 50159U 21125D   24150.60894846  .00003306  00000-0  22571-3 0  9990,2 50159  53.2176 292.9709 0001393  85.9833 274.1318 15.08836543138467,6917.891,95.438,540.72,538.792,0.0
50159.0,STARLINK-3297,PAYLOAD,2024-05-29 16:12:16,15.08837215,0.0001399,53.2177,292.6735,87.9136,272.2016,0.00024812,3.663e-05,0.0,0 STARLINK-3297,1 50159U 21125D   24150.67518862  .00003663  00000-0  24812-3 0  9994,2 50159  53.2177 292.6735 0001399  87.9136 272.2016 15.08837215138470,6917.889,95.438,540.722,538.786,0.0
50159.0,STARLINK-3297,PAYLOAD,2024-05-30 14:27:39,15.08850606,0.0001403,53.2175,288.511,92.0966,268.0186,0.000343,5.177e-05,0.0,0 STARLINK-3297,1 50159U 21125D   24151.60254393  .00005177  00000-0  34300-3 0  9999,2 50159  53.2175 288.5110 0001403  92.0966 268.0186 15.08850606138619,6917.848,95.437,540.684,538.742,0.0
50159.0,STARLINK-3297,PAYLOAD,2024-05-30 16:03:02,15.08852864,0.0001434,53.2176,288.2138,94.9352,265.1804,0.00037812,5.737e-05,0.0,0 STARLINK-3297,1 50159U 21125D   24151.66878275  .00005737  00000-0  37812-3 0  9999,2 50159  53.2176 288.2138 0001434  94.9352 265.1804 15.08852864135082,6917.841,95.437,540.698,538.714,0.0
50159.0,STARLINK-3297,PAYLOAD,2024-05-31 12:43:03,15.08849928,0.0001393,53.2167,284.3441,102.5901,257.5247,0.00023188,3.405e-05,0.0,0 STARLINK-3297,1 50159U 21125D   24152.52990143  .00003405  00000-0  23188-3 0  9995,2 50159  53.2167 284.3441 0001393 102.5901 257.5247 15.08849928135214,6917.85,95.437,540.679,538.751,0.0
50159.0,STARLINK-3297,PAYLOAD,2024-05-31 14:18:26,15.08850929,0.0001405,53.2172,284.047,104.0586,256.0563,0.00024759,3.656e-05,0.0,0 STARLINK-3297,1 50159U 21125D   24152.59614080  .00003656  00000-0  24759-3 0  9998,2 50159  53.2172 284.0470 0001405 104.0586 256.0563 15.08850929138760,6917.847,95.437,540.684,538.74,0.0
50159.0,STARLINK-3297,PAYLOAD,2024-05-31 15:53:49,15.08851902,0.0001384,53.2172,283.7497,102.0192,258.0955,0.00026216,3.888e-05,0.0,0 STARLINK-3297,1 50159U 21125D   24152.66238015  .00003888  00000-0  26216-3 0  9993,2 50159  53.2172 283.7497 0001384 102.0192 258.0955 15.08851902138772,6917.844,95.437,540.666,538.752,0.0
50159.0,STARLINK-3297,PAYLOAD,2024-06-01 14:09:12,15.0886562,0.0001278,53.2167,279.5888,88.7053,271.4086,0.00042371,6.467e-05,0.0,0 STARLINK-3297,1 50159U 21125D   24153.58972806  .00006467  00000-0  42371-3 0  9994,2 50159  53.2167 279.5888 0001278  88.7053 271.4086 15.08865620138913,6917.802,95.436,540.551,538.783,0.0
50159.0,STARLINK-3297,PAYLOAD,2024-06-01 17:19:58,15.08874483,0.0001337,53.2172,278.9952,96.7771,263.3373,0.00073014,0.00011362,0.0,0 STARLINK-3297,1 50159U 21125D   24153.72220463  .00011362  00000-0  73014-3 0  9993,2 50159  53.2172 278.9952 0001337  96.7771 263.3373 15.08874483135391,6917.775,95.435,540.565,538.715,0.0
50159.0,STARLINK-3297,PAYLOAD,2024-06-02 01:16:53,15.08864432,0.0001065,53.2161,277.5053,63.0507,297.0594,0.00025555,3.784e-05,0.0,0 STARLINK-3297,1 50159U 21125D   24154.05340123  .00003784  00000-0  25555-3 0  9992,2 50159  53.2161 277.5053 0001065  63.0507 297.0594 15.08864432135446,6917.806,95.436,540.407,538.934,0.0
50159.0,STARLINK-3297,PAYLOAD,2024-06-02 12:24:36,15.08841413,0.0001277,53.2168,275.4267,78.2392,281.8743,-0.0002376,-4.067e-05,0.0,0 STARLINK-3297,1 50159U 21125D   24154.51708442 -.00004067  00000-0 -23760-3 0  9998,2 50159  53.2168 275.4267 0001277  78.2392 281.8743 15.08841413135511,6917.876,95.437,540.624,538.858,0.0
50159.0,STARLINK-3297,PAYLOAD,2024-06-02 17:10:45,15.0884439,0.0001434,53.2164,274.534,73.4266,286.6884,0.0001789,2.561e-05,0.0,0 STARLINK-3297,1 50159U 21125D   24154.71580502  .00002561  00000-0  17890-3 0  9997,2 50159  53.2164 274.5340 0001434  73.4266 286.6884 15.08844390139083,6917.867,95.437,540.724,538.74,0.0
50159.0,STARLINK-3297,PAYLOAD,2024-06-03 12:15:24,15.08819973,0.0001432,53.2161,270.9627,80.4447,279.6707,0.00023593,3.467e-05,0.0,0 STARLINK-3297,1 50159U 21125D   24155.51070078  .00003467  00000-0  23593-3 0  9991,2 50159  53.2161 270.9627 0001432  80.4447 279.6707 15.08819973135660,6917.942,95.439,540.797,538.816,0.0
50159.0,STARLINK-3297,PAYLOAD,2024-06-04 13:41:35,15.08845994,0.0001395,53.2139,266.207,76.3382,283.7765,0.00093867,0.00014685,0.0,0 STARLINK-3297,1 50159U 21125D   24156.57054801  .00014685  00000-0  93867-3 0  9999,2 50159  53.2139 266.2070 0001395  76.3382 283.7765 15.08845994139368,6917.862,95.437,540.692,538.762,0.0
